ONEWEB-0080             
1 45426U 20020C   25228.31142064 -.00000486  00000+0 -14076-2 0  9994
2 45426  87.8796  81.8187 0001784  71.0959 289.0363 13.11416356262756
ONEWEB-0090             
1 45427U 20020D   25228.33092362 -.00000083  00000+0 -26901-3 0  9996
2 45427  87.8789  81.8169 0001702  82.5476 277.5845 13.11418376262728
ONEWEB-0061             
1 45428U 20020E   25228.28669845  .00000364  00000+0  98991-3 0  9995
2 45428  87.8790  81.8070 0001785  81.6142 278.5189 13.11415830262660
ONEWEB-0081             
1 45429U 20020F   25227.88671481  .00000473  00000+0  12988-2 0  9992
2 45429  87.8787  81.9066 0001976  82.3069 277.8284 13.11418930262720
ONEWEB-0069             
1 45430U 20020G   25228.33346629 -.00000028  00000+0 -11537-3 0  9996
2 45430  87.8791  81.8105 0001876  85.7002 274.4341 13.11418221262723
ONEWEB-0031             
1 45431U 20020H   25228.30547822 -.00000434  00000+0 -12591-2 0  9993
2 45431  87.8788  81.8457 0001556  79.2744 280.8559 13.11414550262695
ONEWEB-0027             
1 45432U 20020J   25228.27027277 -.00000074  00000+0 -22314-3 0  9992
2 45432  87.9033  66.5138 0001379  89.5883 270.5406 13.17648019266200
ONEWEB-0064             
1 45433U 20020K   25228.30378294 -.00000373  00000+0 -10889-2 0  9990
2 45433  87.8787  81.8376 0001569  82.8455 277.2851 13.11414063262738
